{
  "norad_id": 68375,
  "name": "RASSVET-3 16",
  "history": [
    {
      "epoch": "2026-03-31T15:43:56.331840Z",
      "apogee_km": 321.2682369643917,
      "perigee_km": 287.23883140810176,
      "latitude_deg": -1.045249434025158e-05,
      "longitude_deg": 34.693911089030344,
      "height_km": 295.25887554954784,
      "semi_major_axis_km": 6682.390534186246,
      "eccentricity": 0.0025462,
      "inclination_deg": 82.2966,
      "raan_deg": 99.7084,
      "arg_perigee_deg": 44.5811,
      "mean_anomaly_deg": 315.7502,
      "mean_motion_rev_day": 15.89296702
    },
    {
      "epoch": "2026-04-02T19:06:11.199744Z",
      "apogee_km": 319.5797823283647,
      "perigee_km": 286.39997003586814,
      "latitude_deg": 6.736734451098156e-06,
      "longitude_deg": -20.40325757879381,
      "height_km": 292.9032922919535,
      "semi_major_axis_km": 6681.126876182116,
      "eccentricity": 0.0024831,
      "inclination_deg": 82.2959,
      "raan_deg": 97.2829,
      "arg_perigee_deg": 37.1583,
      "mean_anomaly_deg": 323.1401,
      "mean_motion_rev_day": 15.89747619
    },
    {
      "epoch": "2026-04-02T23:38:06.156672Z",
      "apogee_km": 319.3557411227448,
      "perigee_km": 286.2495472850278,
      "latitude_deg": 6.266864415632786e-06,
      "longitude_deg": -88.78236456361348,
      "height_km": 292.6103262132735,
      "semi_major_axis_km": 6680.939644203886,
      "eccentricity": 0.00247766,
      "inclination_deg": 82.2958,
      "raan_deg": 97.0689,
      "arg_perigee_deg": 36.3707,
      "mean_anomaly_deg": 323.9242,
      "mean_motion_rev_day": 15.89814448
    },
    {
      "epoch": "2026-04-03T19:16:17.700960Z",
      "apogee_km": 318.3747474190677,
      "perigee_km": 285.87260711988165,
      "latitude_deg": 8.368714590418466e-05,
      "longitude_deg": -25.064099444018964,
      "height_km": 291.8176494280355,
      "semi_major_axis_km": 6680.260677269474,
      "eccentricity": 0.0024327,
      "inclination_deg": 82.2954,
      "raan_deg": 96.1417,
      "arg_perigee_deg": 34.1686,
      "mean_anomaly_deg": 326.1146,
      "mean_motion_rev_day": 15.90056832
    },
    {
      "epoch": "2026-04-04T19:26:08.487744Z",
      "apogee_km": 317.50318832899757,
      "perigee_km": 285.4090792397892,
      "latitude_deg": -4.5394640703405206e-05,
      "longitude_deg": -29.659413822058156,
      "height_km": 290.7829294153442,
      "semi_major_axis_km": 6679.593133784393,
      "eccentricity": 0.0024024,
      "inclination_deg": 82.2958,
      "raan_deg": 95.0004,
      "arg_perigee_deg": 30.5602,
      "mean_anomaly_deg": 329.7063,
      "mean_motion_rev_day": 15.90295198
    },
    {
      "epoch": "2026-04-04T20:56:45.089376Z",
      "apogee_km": 317.47775816056674,
      "perigee_km": 285.38377096539443,
      "latitude_deg": -7.264366869565354e-06,
      "longitude_deg": -52.44533591264108,
      "height_km": 290.7223228036052,
      "semi_major_axis_km": 6679.56776456298,
      "eccentricity": 0.0024024,
      "inclination_deg": 82.2959,
      "raan_deg": 94.929,
      "arg_perigee_deg": 30.3095,
      "mean_anomaly_deg": 329.956,
      "mean_motion_rev_day": 15.90304258
    },
    {
      "epoch": "2026-04-05T21:06:32.917824Z",
      "apogee_km": 317.2409373719902,
      "perigee_km": 285.9850511987306,
      "latitude_deg": -3.3974978958675576e-06,
      "longitude_deg": -57.02957317002261,
      "height_km": 291.1252636540987,
      "semi_major_axis_km": 6679.74999428536,
      "eccentricity": 0.0023396,
      "inclination_deg": 82.2959,
      "raan_deg": 93.7864,
      "arg_perigee_deg": 29.253,
      "mean_anomaly_deg": 331.0046,
      "mean_motion_rev_day": 15.90239181
    },
    {
      "epoch": "2026-04-06T04:39:36.203328Z",
      "apogee_km": 316.94814554948607,
      "perigee_km": 285.85142844688016,
      "latitude_deg": 3.2164527702853828e-06,
      "longitude_deg": -170.95966754092598,
      "height_km": 290.82225121429303,
      "semi_major_axis_km": 6679.536786998183,
      "eccentricity": 0.00232776,
      "inclination_deg": 82.2959,
      "raan_deg": 93.4301,
      "arg_perigee_deg": 28.0165,
      "mean_anomaly_deg": 332.2354,
      "mean_motion_rev_day": 15.90315321
    },
    {
      "epoch": "2026-04-07T10:52:18.060384Z",
      "apogee_km": 318.4023603767064,
      "perigee_km": 287.6313708869984,
      "latitude_deg": 3.390415789819335e-05,
      "longitude_deg": 93.19838142782163,
      "height_km": 292.1203077155639,
      "semi_major_axis_km": 6681.153865631853,
      "eccentricity": 0.00230282,
      "inclination_deg": 82.2962,
      "raan_deg": 92.0033,
      "arg_perigee_deg": 24.0595,
      "mean_anomaly_deg": 336.1747,
      "mean_motion_rev_day": 15.89737986
    },
    {
      "epoch": "2026-04-09T15:51:11.420640Z",
      "apogee_km": 330.2055056155059,
      "perigee_km": 304.9546174330844,
      "latitude_deg": 1.1555547890462422e-05,
      "longitude_deg": 13.816364973144651,
      "height_km": 309.27465704791695,
      "semi_major_axis_km": 6695.717061524295,
      "eccentricity": 0.0018856,
      "inclination_deg": 82.2968,
      "raan_deg": 89.5195,
      "arg_perigee_deg": 24.8633,
      "mean_anomaly_deg": 335.354,
      "mean_motion_rev_day": 15.84554283
    },
    {
      "epoch": "2026-04-10T11:34:10.962048Z",
      "apogee_km": 335.0775886208594,
      "perigee_km": 305.91575679010293,
      "latitude_deg": 3.670393226596568e-05,
      "longitude_deg": 76.32974752329353,
      "height_km": 309.6530445432181,
      "semi_major_axis_km": 6698.633672705481,
      "eccentricity": 0.0021767,
      "inclination_deg": 82.2954,
      "raan_deg": 88.5907,
      "arg_perigee_deg": 16.2857,
      "mean_anomaly_deg": 343.9106,
      "mean_motion_rev_day": 15.83519514
    },
    {
      "epoch": "2026-04-11T20:55:59.691360Z",
      "apogee_km": 334.307772813112,
      "perigee_km": 305.5797045249601,
      "latitude_deg": 5.310809112957955e-05,
      "longitude_deg": -67.05608339472954,
      "height_km": 308.98603483785683,
      "semi_major_axis_km": 6698.080738669036,
      "eccentricity": 0.0021445,
      "inclination_deg": 82.2945,
      "raan_deg": 87.0281,
      "arg_perigee_deg": 10.6907,
      "mean_anomaly_deg": 349.4813,
      "mean_motion_rev_day": 15.837156
    },
    {
      "epoch": "2026-04-13T06:17:41.195904Z",
      "apogee_km": 333.86095361280786,
      "perigee_km": 306.3417771477116,
      "latitude_deg": -1.3006369257917065e-05,
      "longitude_deg": 149.58946224297736,
      "height_km": 309.5634533466841,
      "semi_major_axis_km": 6698.238365380259,
      "eccentricity": 0.00205421,
      "inclination_deg": 82.2941,
      "raan_deg": 85.4667,
      "arg_perigee_deg": 5.3885,
      "mean_anomaly_deg": 354.76,
      "mean_motion_rev_day": 15.83659697
    },
    {
      "epoch": "2026-04-14T20:12:18.311040Z",
      "apogee_km": 333.17229925422726,
      "perigee_km": 306.1841226432307,
      "latitude_deg": 4.427139921673998e-05,
      "longitude_deg": -62.397495844845686,
      "height_km": 309.34881080188245,
      "semi_major_axis_km": 6697.815210948729,
      "eccentricity": 0.0020147,
      "inclination_deg": 82.2941,
      "raan_deg": 83.6913,
      "arg_perigee_deg": 359.6273,
      "mean_anomaly_deg": 0.4977,
      "mean_motion_rev_day": 15.83809778
    },
    {
      "epoch": "2026-04-15T11:22:05.710944Z",
      "apogee_km": 332.88730375981777,
      "perigee_km": 306.1406364697241,
      "latitude_deg": -2.7039297247870272e-05,
      "longitude_deg": 68.82226702133732,
      "height_km": 309.3222339445494,
      "semi_major_axis_km": 6697.650970114771,
      "eccentricity": 0.00199672,
      "inclination_deg": 82.2941,
      "raan_deg": 82.9813,
      "arg_perigee_deg": 357.2063,
      "mean_anomaly_deg": 2.909,
      "mean_motion_rev_day": 15.83868036
    },
    {
      "epoch": "2026-04-16T20:44:33.031680Z",
      "apogee_km": 334.31319143098244,
      "perigee_km": 309.0374794143672,
      "latitude_deg": 7.10554664768689e-05,
      "longitude_deg": -74.72298547379212,
      "height_km": 312.3435162734624,
      "semi_major_axis_km": 6699.812335422675,
      "eccentricity": 0.0018863,
      "inclination_deg": 82.2944,
      "raan_deg": 81.4205,
      "arg_perigee_deg": 351.4965,
      "mean_anomaly_deg": 8.5981,
      "mean_motion_rev_day": 15.83101662
    },
    {
      "epoch": "2026-04-17T22:31:51.672864Z",
      "apogee_km": 333.7583164634698,
      "perigee_km": 308.96427720668,
      "latitude_deg": 4.109370111541998e-05,
      "longitude_deg": -103.81605629362635,
      "height_km": 312.436940648978,
      "semi_major_axis_km": 6699.498296835075,
      "eccentricity": 0.00185044,
      "inclination_deg": 82.295,
      "raan_deg": 80.2142,
      "arg_perigee_deg": 347.2856,
      "mean_anomaly_deg": 12.7943,
      "mean_motion_rev_day": 15.83212975
    },
    {
      "epoch": "2026-04-18T06:06:55.900224Z",
      "apogee_km": 333.63733239551493,
      "perigee_km": 308.89095047126557,
      "latitude_deg": -1.7956891126589812e-05,
      "longitude_deg": 141.750137172091,
      "height_km": 312.4220440123246,
      "semi_major_axis_km": 6699.40114143339,
      "eccentricity": 0.00184691,
      "inclination_deg": 82.2952,
      "raan_deg": 79.8595,
      "arg_perigee_deg": 346.1062,
      "mean_anomaly_deg": 13.9695,
      "mean_motion_rev_day": 15.83247415
    },
    {
      "epoch": "2026-04-19T15:29:28.354848Z",
      "apogee_km": 333.77607994020127,
      "perigee_km": 309.55629142396083,
      "latitude_deg": -4.831477638162899e-05,
      "longitude_deg": -1.8165858772879162,
      "height_km": 313.4480887205661,
      "semi_major_axis_km": 6699.803185682081,
      "eccentricity": 0.0018075,
      "inclination_deg": 82.2955,
      "raan_deg": 78.2987,
      "arg_perigee_deg": 340.1233,
      "mean_anomaly_deg": 19.9328,
      "mean_motion_rev_day": 15.83104905
    }
  ]
}